SUCHAI                  
1 42788U 17036Z   17175.71872750  .00002125  00000-0  10000-3 0  9998
2 42788  97.4489 235.4612 0010537 248.5815 111.4163 15.20603614   245